{
    "links": {
        "self": "http://www.neowsapp.com/rest/v1/neo/3841849?api_key=iIulBulltgU6a56xZRHN4H3l9WmuAYTsLGpBGhQ2"
    },
    "id": "3841849",
    "neo_reference_id": "3841849",
    "name": "(2019 JV5)",
    "designation": "2019 JV5",
    "nasa_jpl_url": "http://ssd.jpl.nasa.gov/sbdb.cgi?sstr=3841849",
    "absolute_magnitude_h": 27.9,
    "estimated_diameter": {
        "kilometers": {
            "estimated_diameter_min": 0.0069912523,
            "estimated_diameter_max": 0.0156329154
        },
        "meters": {
            "estimated_diameter_min": 6.9912523225,
            "estimated_diameter_max": 15.6329154409
        },
        "miles": {
            "estimated_diameter_min": 0.0043441614,
            "estimated_diameter_max": 0.0097138403
        },
        "feet": {
            "estimated_diameter_min": 22.9371802696,
            "estimated_diameter_max": 51.289094295
        }
    },
    "is_potentially_hazardous_asteroid": false,
    "close_approach_data": [
        {
            "close_approach_date": "2019-05-08",
            "close_approach_date_full": "2019-May-08 05:19",
            "epoch_date_close_approach": 1557292740000,
            "relative_velocity": {
                "kilometers_per_second": "10.8554171526",
                "kilometers_per_hour": "39079.5017494086",
                "miles_per_hour": "24282.4826286811"
            },
            "miss_distance": {
                "astronomical": "0.0037028697",
                "lunar": "1.4404163133",
                "kilometers": "553941.420007539",
                "miles": "344203.2374764782"
            },
            "orbiting_body": "Moon"
        },
        {
            "close_approach_date": "2019-05-08",
            "close_approach_date_full": "2019-May-08 14:16",
            "epoch_date_close_approach": 1557324960000,
            "relative_velocity": {
                "kilometers_per_second": "11.3077885933",
                "kilometers_per_hour": "40708.0389359718",
                "miles_per_hour": "25294.3923044098"
            },
            "miss_distance": {
                "astronomical": "0.0032206854",
                "lunar": "1.2528466206",
                "kilometers": "481807.675780098",
                "miles": "299381.4072294324"
            },
            "orbiting_body": "Earth"
        },
        {
            "close_approach_date": "2112-05-04",
            "close_approach_date_full": "2112-May-04 22:16",
            "epoch_date_close_approach": 4491843360000,
            "relative_velocity": {
                "kilometers_per_second": "10.1689703089",
                "kilometers_per_hour": "36608.2931119201",
                "miles_per_hour": "22746.9696839039"
            },
            "miss_distance": {
                "astronomical": "0.0431842455",
                "lunar": "16.7986714995",
                "kilometers": "6460271.144357085",
                "miles": "4014226.346954373"
            },
            "orbiting_body": "Earth"
        }
    ],
    "orbital_data": {
        "orbit_id": "1",
        "orbit_determination_date": "2019-05-12 12:12:07",
        "first_observation_date": "2019-05-09",
        "last_observation_date": "2019-05-11",
        "data_arc_in_days": 2,
        "observations_used": 21,
        "orbit_uncertainty": "8",
        "minimum_orbit_intersection": ".00251143",
        "jupiter_tisserand_invariant": "4.520",
        "epoch_osculation": "2458613.5",
        "eccentricity": ".4279448610524372",
        "semi_major_axis": "1.456854365444602",
        "inclination": "7.598253487383108",
        "ascending_node_longitude": "226.6433424444974",
        "orbital_period": "642.2773936722468",
        "perihelion_distance": ".8334010264507754",
        "perihelion_argument": "295.9107206353188",
        "aphelion_distance": "2.080307704438429",
        "perihelion_time": "2458564.060220265603",
        "mean_anomaly": "27.71126756092147",
        "mean_motion": ".560505481816331",
        "equinox": "J2000",
        "orbit_class": {
            "orbit_class_type": "APO",
            "orbit_class_description": "Near-Earth asteroid orbits which cross the Earth’s orbit similar to that of 1862 Apollo",
            "orbit_class_range": "a (semi-major axis) > 1.0 AU; q (perihelion) < 1.017 AU"
        }
    },
    "is_sentry_object": false
}